{
    "links": {
        "self": "http://www.neowsapp.com/rest/v1/neo/3799647?api_key=iIulBulltgU6a56xZRHN4H3l9WmuAYTsLGpBGhQ2"
    },
    "id": "3799647",
    "neo_reference_id": "3799647",
    "name": "(2018 CF14)",
    "designation": "2018 CF14",
    "nasa_jpl_url": "http://ssd.jpl.nasa.gov/sbdb.cgi?sstr=3799647",
    "absolute_magnitude_h": 24.6,
    "estimated_diameter": {
        "kilometers": {
            "estimated_diameter_min": 0.0319561887,
            "estimated_diameter_max": 0.0714562102
        },
        "meters": {
            "estimated_diameter_min": 31.9561886721,
            "estimated_diameter_max": 71.4562101727
        },
        "miles": {
            "estimated_diameter_min": 0.0198566489,
            "estimated_diameter_max": 0.0444008168
        },
        "feet": {
            "estimated_diameter_min": 104.8431420431,
            "estimated_diameter_max": 234.436392583
        }
    },
    "is_potentially_hazardous_asteroid": false,
    "close_approach_data": [
        {
            "close_approach_date": "2018-01-21",
            "close_approach_date_full": "2018-Jan-21 13:30",
            "epoch_date_close_approach": 1516541400000,
            "relative_velocity": {
                "kilometers_per_second": "7.0318134713",
                "kilometers_per_hour": "25314.5284966841",
                "miles_per_hour": "15729.4635539535"
            },
            "miss_distance": {
                "astronomical": "0.1056341379",
                "lunar": "41.0916796431",
                "kilometers": "15802642.029126273",
                "miles": "9819306.4296096474"
            },
            "orbiting_body": "Earth"
        }
    ],
    "orbital_data": {
        "orbit_id": "2",
        "orbit_determination_date": "2018-02-27 06:23:50",
        "first_observation_date": "2018-02-12",
        "last_observation_date": "2018-02-26",
        "data_arc_in_days": 14,
        "observations_used": 15,
        "orbit_uncertainty": "8",
        "minimum_orbit_intersection": ".101081",
        "jupiter_tisserand_invariant": "4.614",
        "epoch_osculation": "2458162.5",
        "eccentricity": ".3159231033547207",
        "semi_major_axis": "1.432132504412471",
        "inclination": "10.040303452914",
        "ascending_node_longitude": "328.2013728014956",
        "orbital_period": "625.9984092412175",
        "perihelion_distance": ".9796887592033147",
        "perihelion_argument": "110.4955990740869",
        "aphelion_distance": "1.884576249621627",
        "perihelion_time": "2458100.591082048289",
        "mean_anomaly": "35.60266309563092",
        "mean_motion": ".575081333571377",
        "equinox": "J2000",
        "orbit_class": {
            "orbit_class_type": "APO",
            "orbit_class_description": "Near-Earth asteroid orbits which cross the Earth’s orbit similar to that of 1862 Apollo",
            "orbit_class_range": "a (semi-major axis) > 1.0 AU; q (perihelion) < 1.017 AU"
        }
    },
    "is_sentry_object": false
}